{
  "norad_id": 46173,
  "name": "STARLINK-1640",
  "history": [
    {
      "epoch": "2026-03-28T18:55:05.244960",
      "apogee_km": 397.1574429783186,
      "perigee_km": 391.09640221287464,
      "latitude_deg": 48.3818303379593,
      "longitude_deg": -47.02750559989363,
      "semi_major_axis_km": 6772.263922595596,
      "eccentricity": 0.00044749,
      "inclination_deg": 53.0482,
      "raan_deg": 206.6302,
      "arg_perigee_deg": 240.5062,
      "mean_anomaly_deg": 119.5503,
      "mean_motion_rev_day": 15.57765029
    },
    {
      "epoch": "2026-03-29T04:09:23.755104",
      "apogee_km": 396.8789412831338,
      "perigee_km": 390.979117358389,
      "latitude_deg": 45.31398058205051,
      "longitude_deg": -10.073605439858511,
      "semi_major_axis_km": 6772.066029320761,
      "eccentricity": 0.0004356,
      "inclination_deg": 53.0482,
      "raan_deg": 204.762,
      "arg_perigee_deg": 244.2611,
      "mean_anomaly_deg": 115.7951,
      "mean_motion_rev_day": 15.57833311
    }
  ]
}